     2.100          NAVIGATION                              RINEX VERSION / TYPE
fic2rin                                 02/11/2011 00:23:57 PGM / RUN BY / DATE
                                                            END OF HEADER
31 11  2 10  4  0  0.0  .397996045649D-04  .454747350886D-11  .000000000000D+00
     .920000000000D+02 -.240625000000D+02  .404516849750D-08 -.251991022006D+01
    -.114180147648D-05  .789108325262D-02  .848807394505D-05  .515359797478D+04
     .360000000000D+06  .372529029846D-08 -.212195308016D+01  .132247805595D-06
     .978970627839D+00  .225000000000D+03 -.100042594677D+01 -.769032033271D-08
     .857178562071D-10  .100000000000D+01  .162200000000D+04  .000000000000D+00
     .240000000000D+01  .000000000000D+00 -.130385160446D-07  .920000000000D+02
     .352806000000D+06  .400000000000D+01
32 11  2 10  4  0  0.0 -.193214043975D-03 -.784439180279D-11  .000000000000D+00
     .730000000000D+02  .766562500000D+02  .464626496416D-08 -.176907626558D+01
     .408664345741D-05  .122788780136D-01  .577419996262D-05  .515374708366D+04
     .360000000000D+06 -.236555933952D-06  .214607814705D+01  .968575477600D-07
     .955834824186D+00  .270031250000D+03 -.827088303342D+00 -.827534470132D-08
     .142148778210D-09  .100000000000D+01  .162200000000D+04  .000000000000D+00
     .240000000000D+01  .000000000000D+00 -.325962901115D-08  .730000000000D+02
     .352806000000D+06  .400000000000D+01
 7 11  2 10  3 59 44.0  .334531068802D-05  .682121026330D-12  .000000000000D+00
     .130000000000D+02 -.449375000000D+02  .414838708269D-08 -.256383055813D+01
    -.227428972721D-05  .416701403446D-02  .873766839504D-05  .515367798042D+04
     .359984000000D+06 -.577419996262D-07 -.212273007545D+01 -.409781932831D-07
     .973789445988D+00  .220218750000D+03 -.309785756337D+01 -.784818405122D-08
     .810748056625D-10  .100000000000D+01  .162200000000D+04  .000000000000D+00
     .240000000000D+01  .000000000000D+00 -.107102096081D-07  .130000000000D+02
     .352956000000D+06  .400000000000D+01
22 11  2 10  3 59 44.0  .153556466103D-03 -.568434188608D-12  .000000000000D+00
     .170000000000D+02  .635625000000D+02  .528522015063D-08  .869931152513D+00
     .334717333317D-05  .536743935663D-02  .567920506001D-05  .515371629333D+04
     .359984000000D+06 -.931322574615D-07  .208174205572D+01  .353902578354D-07
     .931611051283D+00  .254093750000D+03 -.195183389308D+01 -.859035782288D-08
     .314298806093D-10  .100000000000D+01  .162200000000D+04  .000000000000D+00
     .240000000000D+01  .000000000000D+00 -.172294676304D-07  .170000000000D+02
     .353346000000D+06  .400000000000D+01
24 11  2 10  3 59 44.0  .364128034562D-03  .341060513165D-11  .000000000000D+00
     .260000000000D+02  .343125000000D+02  .463305012799D-08 -.149349064307D+01
     .176206231117D-05  .582697871141D-02  .100303441286D-04  .515372963333D+04
     .359984000000D+06 -.502914190292D-07  .106501610455D+01 -.596046447754D-07
     .948448754149D+00  .181468750000D+03 -.312775203246D+00 -.801104797802D-08
    -.314298806093D-10  .100000000000D+01  .162200000000D+04  .000000000000D+00
     .240000000000D+01  .000000000000D+00 -.139698386192D-08  .260000000000D+02
     .355236000000D+06  .400000000000D+01
18 11  2 10  3 59 44.0  .120686367154D-03  .204636307899D-11  .000000000000D+00
     .100000000000D+01  .643125000000D+02  .518878756240D-08  .170451330492D+01
     .333786010742D-05  .118881444214D-01  .589340925217D-05  .515376487350D+04
     .359984000000D+06 -.340864062309D-06  .207738121689D+01 -.298023223877D-07
     .933914471389D+00  .251312500000D+03 -.227565672743D+01 -.852678374620D-08
     .671456540289D-10  .100000000000D+01  .162200000000D+04  .000000000000D+00
     .240000000000D+01  .000000000000D+00 -.107102096081D-07  .100000000000D+01
     .357486000000D+06  .400000000000D+01
31 11  2 10  3 59 44.0  .398019328713D-04  .454747350886D-11  .000000000000D+00
     .100000000000D+01 -.240625000000D+02  .404516849750D-08 -.252224401619D+01
    -.114180147648D-05  .789108197205D-02  .848807394505D-05  .515359797096D+04
     .359984000000D+06  .372529029846D-08 -.212195295581D+01  .132247805595D-06
     .978970629302D+00  .225000000000D+03 -.100042595263D+01 -.769032033271D-08
     .860750139413D-10  .100000000000D+01  .162200000000D+04  .000000000000D+00
     .240000000000D+01  .000000000000D+00 -.130385160446D-07  .100000000000D+01
     .358206000000D+06  .400000000000D+01
 5 11  2 10  3 59 44.0 -.112369656563D-03 -.591171556152D-11  .000000000000D+00
     .800000000000D+01  .760312500000D+02  .465305096111D-08  .850202460197D+00
     .402890145779D-05  .224819162395D-02  .631995499134D-05  .515361489677D+04
     .359984000000D+06  .000000000000D+00  .205702986568D+01  .111758708954D-07
     .955022053233D+00  .252437500000D+03  .279320148085D+00 -.820427031222D-08
     .896465912832D-10  .100000000000D+01  .162200000000D+04  .000000000000D+00
     .240000000000D+01  .000000000000D+00 -.977888703346D-08  .800000000000D+01
     .359256000000D+06  .400000000000D+01
 5 11  2 10  5 59 44.0 -.112412031740D-03 -.591171556152D-11  .000000000000D+00
     .900000000000D+01  .833750000000D+02  .470876756764D-08  .190056971795D+01
     .433251261711D-05  .224861199968D-02  .646896660328D-05  .515361443329D+04
     .367184000000D+06  .111758708954D-07  .205697093787D+01 -.223517417908D-07
     .955022591587D+00  .253000000000D+03  .279170314553D+00 -.820784188956D-08
     .614311302817D-10  .100000000000D+01  .162200000000D+04  .000000000000D+00
     .240000000000D+01  .000000000000D+00 -.977888703346D-08  .900000000000D+01
     .360006000000D+06  .400000000000D+01
18 11  2 10  5 59 44.0  .120701268315D-03  .204636307899D-11  .000000000000D+00
     .210000000000D+02  .690937500000D+02  .502556647787D-08  .275474994749D+01
     .353716313839D-05  .118888065917D-01  .633299350739D-05  .515376224899D+04
     .367184000000D+06  .931322574615D-08  .207732106462D+01 -.169500708580D-06
     .933916757930D+00  .241531250000D+03 -.227576275827D+01 -.816248285732D-08
     .103218585183D-09  .100000000000D+01  .162200000000D+04  .000000000000D+00
     .240000000000D+01  .000000000000D+00 -.107102096081D-07  .210000000000D+02
     .360006000000D+06  .400000000000D+01
22 11  2 10  5 59 44.0  .153552275151D-03 -.568434188608D-12  .000000000000D+00
     .180000000000D+02  .697500000000D+02  .522950354410D-08  .192034949682D+01
     .364519655704D-05  .536755449139D-02  .610947608948D-05  .515371375465D+04
     .367184000000D+06 -.540167093277D-07  .208168017722D+01 -.162050127983D-06
     .931612199673D+00  .245125000000D+03 -.195209135057D+01 -.841749347953D-08
     .102504269714D-09  .100000000000D+01  .162200000000D+04  .000000000000D+00
     .240000000000D+01  .000000000000D+00 -.172294676304D-07  .180000000000D+02
     .360006000000D+06  .400000000000D+01
24 11  2 10  5 59 44.0  .364152248949D-03  .341060513165D-11  .000000000000D+00
     .300000000000D+02  .301562500000D+02  .469519557374D-08 -.443462425361D+00
     .152364373207D-05  .582708837464D-02  .971369445324D-05  .515372865105D+04
     .367184000000D+06  .102445483208D-06  .106495890738D+01 -.109896063805D-06
     .948448059263D+00  .188437500000D+03 -.312655145948D+00 -.807069331963D-08
    -.143934566881D-09  .100000000000D+01  .162200000000D+04  .000000000000D+00
     .240000000000D+01  .000000000000D+00 -.139698386192D-08  .300000000000D+02
     .360006000000D+06  .400000000000D+01
31 11  2 10  5 59 44.0  .398349948227D-04  .454747350886D-11  .000000000000D+00
     .110000000000D+02 -.259062500000D+02  .406374069968D-08 -.147192112875D+01
    -.135228037834D-05  .789042864926D-02  .834837555885D-05  .515359981728D+04
     .367184000000D+06 -.193715095520D-06 -.212200927962D+01  .130385160446D-07
     .978970377680D+00  .233000000000D+03 -.100052574704D+01 -.790247202682D-08
     .118576367753D-09  .100000000000D+01  .162200000000D+04  .000000000000D+00
     .240000000000D+01  .000000000000D+00 -.130385160446D-07  .110000000000D+02
     .360006000000D+06  .400000000000D+01
 1 11  2 10  6  0  0.0 -.207181554288D-03 -.306954461848D-11  .000000000000D+00
     .850000000000D+02 -.136875000000D+02  .454661795632D-08  .189807345159D+01
    -.698491930962D-06  .446503062267D-02  .676140189171D-05  .515356314468D+04
     .367200000000D+06 -.145286321640D-06 -.108386588300D+01 -.819563865662D-07
     .967599722561D+00  .253875000000D+03  .884366277222D+00 -.804033491222D-08
     .305727020472D-09  .100000000000D+01  .162200000000D+04  .000000000000D+00
     .240000000000D+01  .630000000000D+02 -.195577740669D-07  .850000000000D+02
     .360006000000D+06  .400000000000D+01
 2 11  2 10  6  0  0.0  .319540966302D-03  .204636307899D-11  .000000000000D+00
     .190000000000D+02  .205937500000D+02  .506235372450D-08  .208896878033D+00
     .100210309029D-05  .100013061892D-01  .961311161518D-05  .515370788002D+04
     .367200000000D+06  .188127160072D-06  .995359020287D+00  .558793544769D-08
     .939187521570D+00  .183593750000D+03 -.308650869110D+01 -.831820362943D-08
    -.227866634417D-09  .100000000000D+01  .162200000000D+04  .000000000000D+00
     .240000000000D+01  .000000000000D+00 -.172294676304D-07  .190000000000D+02
     .360006000000D+06  .400000000000D+01
 3 11  2 10  6  0  0.0  .674051232636D-03  .500222085975D-11  .000000000000D+00
     .960000000000D+02 -.349375000000D+02  .560987653102D-08  .168055941553D+00
    -.164844095707D-05  .139434775338D-01  .637955963612D-05  .515363838768D+04
     .367200000000D+06 -.124797224998D-06 -.160560006369D+00  .124797224998D-06
     .928639479916D+00  .239562500000D+03  .107230513630D+01 -.879250910044D-08
    -.157149403046D-09  .100000000000D+01  .162200000000D+04  .000000000000D+00
     .340000000000D+01  .000000000000D+00 -.419095158577D-08  .960000000000D+02
     .360006000000D+06  .400000000000D+01
